[{"OBJECT_NAME":"STARLINK-34573","OBJECT_ID":"2025-139N","EPOCH":"2026-03-09T09:37:36.765408","MEAN_MOTION":15.30201397,"ECCENTRICITY":0.00011304,"INCLINATION":53.1576,"RA_OF_ASC_NODE":128.1133,"ARG_OF_PERICENTER":100.9056,"MEAN_ANOMALY":259.2072,"EPHEMERIS_TYPE":0,"CLASSIFICATION_TYPE":"U","NORAD_CAT_ID":64676,"ELEMENT_SET_NO":999,"REV_AT_EPOCH":4024,"BSTAR":0.00055579917,"MEAN_MOTION_DOT":0.00016139,"MEAN_MOTION_DDOT":0},{"OBJECT_NAME":"GEOSCAN 5 (RS92S5)","OBJECT_ID":"2025-155R","EPOCH":"2026-03-09T22:01:07.273920","MEAN_MOTION":15.30265233,"ECCENTRICITY":0.00070849,"INCLINATION":97.4462,"RA_OF_ASC_NODE":37.7456,"ARG_OF_PERICENTER":154.5846,"MEAN_ANOMALY":205.5745,"EPHEMERIS_TYPE":0,"CLASSIFICATION_TYPE":"U","NORAD_CAT_ID":64891,"ELEMENT_SET_NO":999,"REV_AT_EPOCH":6562,"BSTAR":0.00068639307,"MEAN_MOTION_DOT":0.00020065,"MEAN_MOTION_DDOT":0}]
